{
  "type": "FeatureCollection",
  "features": [
    {
      "type": "Feature",
      "properties": {
        "norad_id": 38474,
        "name": "IRIDIUM 33 DEB",
        "group": "iridium-33-debris",
        "lat": 80.90256814585031,
        "lon": 36.23335565328627,
        "alt_km": 698.0909391343748,
        "timestamp": "2025-12-06T16:45:43.107082+00:00",
        "meta_object_name": "IRIDIUM 33 DEB",
        "meta_object_id": "1997-051AAB",
        "meta_epoch": "2025-12-05T20:31:18.420384",
        "meta_mean_motion": 14.50647006,
        "meta_eccentricity": 0.00280558,
        "meta_inclination": 86.3432,
        "meta_ra_of_asc_node": 13.0613,
        "meta_arg_of_pericenter": 109.3616,
        "meta_mean_anomaly": 251.0626,
        "meta_ephemeris_type": 0,
        "meta_classification_type": "U",
        "meta_norad_cat_id": 38474,
        "meta_element_set_no": 999,
        "meta_rev_at_epoch": 65218,
        "meta_bstar": 0.0010134267,
        "meta_mean_motion_dot": 4.017e-05,
        "meta_mean_motion_ddot": 0,
        "tle_line1": "1 38474U 97051AAB 25339.85507431  .00004017  00000+0  10134-2 0  9995",
        "tle_line2": "2 38474  86.3432  13.0613 0028055 109.3616 251.0626 14.50647006652181"
      },
      "geometry": {
        "type": "Point",
        "coordinates": [
          36.23335565328627,
          80.90256814585031
        ]
      }
    },
    {
      "type": "Feature",
      "properties": {
        "norad_id": 39777,
        "name": "IRIDIUM 33 DEB",
        "group": "iridium-33-debris",
        "lat": 5.731758913728305,
        "lon": 178.38076100326762,
        "alt_km": 747.0150899309856,
        "timestamp": "2025-12-06T16:45:43.107092+00:00",
        "meta_object_name": "IRIDIUM 33 DEB",
        "meta_object_id": "1997-051AAJ",
        "meta_epoch": "2025-12-06T00:14:36.412224",
        "meta_mean_motion": 14.5619016,
        "meta_eccentricity": 0.00596608,
        "meta_inclination": 85.9622,
        "meta_ra_of_asc_node": 178.3085,
        "meta_arg_of_pericenter": 209.6605,
        "meta_mean_anomaly": 150.1216,
        "meta_ephemeris_type": 0,
        "meta_classification_type": "U",
        "meta_norad_cat_id": 39777,
        "meta_element_set_no": 999,
        "meta_rev_at_epoch": 60087,
        "meta_bstar": 0.0037764101,
        "meta_mean_motion_dot": 0.00017134,
        "meta_mean_motion_ddot": 0,
        "tle_line1": "1 39777U 97051AAJ 25340.01014366  .00017134  00000+0  37764-2 0  9994",
        "tle_line2": "2 39777  85.9622 178.3085 0059660 209.6605 150.1216 14.56190160600873"
      },
      "geometry": {
        "type": "Point",
        "coordinates": [
          178.38076100326762,
          5.731758913728305
        ]
      }
    },
    {
      "type": "Feature",
      "properties": {
        "norad_id": 39778,
        "name": "IRIDIUM 33 DEB",
        "group": "iridium-33-debris",
        "lat": -65.79225467137961,
        "lon": -126.05259987932044,
        "alt_km": 725.3798438457034,
        "timestamp": "2025-12-06T16:45:43.107102+00:00",
        "meta_object_name": "IRIDIUM 33 DEB",
        "meta_object_id": "1997-051AAK",
        "meta_epoch": "2025-12-06T04:04:26.955552",
        "meta_mean_motion": 14.54189534,
        "meta_eccentricity": 0.00086299,
        "meta_inclination": 86.3781,
        "meta_ra_of_asc_node": 46.0776,
        "meta_arg_of_pericenter": 61.1506,
        "meta_mean_anomaly": 299.0566,
        "meta_ephemeris_type": 0,
        "meta_classification_type": "U",
        "meta_norad_cat_id": 39778,
        "meta_element_set_no": 999,
        "meta_rev_at_epoch": 60597,
        "meta_bstar": 0.0015433933,
        "meta_mean_motion_dot": 6.554e-05,
        "meta_mean_motion_ddot": 0,
        "tle_line1": "1 39778U 97051AAK 25340.16975643  .00006554  00000+0  15434-2 0  9999",
        "tle_line2": "2 39778  86.3781  46.0776 0008629  61.1506 299.0566 14.54189534605971"
      },
      "geometry": {
        "type": "Point",
        "coordinates": [
          -126.05259987932044,
          -65.79225467137961
        ]
      }
    },
    {
      "type": "Feature",
      "properties": {
        "norad_id": 39781,
        "name": "IRIDIUM 33 DEB",
        "group": "iridium-33-debris",
        "lat": 16.22026030131917,
        "lon": -98.47393276118049,
        "alt_km": 809.0266287329869,
        "timestamp": "2025-12-06T16:45:43.107112+00:00",
        "meta_object_name": "IRIDIUM 33 DEB",
        "meta_object_id": "1997-051AAN",
        "meta_epoch": "2025-12-06T01:31:14.843136",
        "meta_mean_motion": 14.20320372,
        "meta_eccentricity": 0.01798533,
        "meta_inclination": 86.371,
        "meta_ra_of_asc_node": 260.7297,
        "meta_arg_of_pericenter": 294.3997,
        "meta_mean_anomaly": 74.8113,
        "meta_ephemeris_type": 0,
        "meta_classification_type": "U",
        "meta_norad_cat_id": 39781,
        "meta_element_set_no": 999,
        "meta_rev_at_epoch": 8012,
        "meta_bstar": 0.0080170442,
        "meta_mean_motion_dot": 0.00020236,
        "meta_mean_motion_ddot": 0,
        "tle_line1": "1 39781U 97051AAN 25340.06336624  .00020236  00000+0  80170-2 0  9994",
        "tle_line2": "2 39781  86.3710 260.7297 0179853 294.3997  74.8113 14.20320372 80123"
      },
      "geometry": {
        "type": "Point",
        "coordinates": [
          -98.47393276118049,
          16.22026030131917
        ]
      }
    },
    {
      "type": "Feature",
      "properties": {
        "norad_id": 39783,
        "name": "IRIDIUM 33 DEB",
        "group": "iridium-33-debris",
        "lat": 67.91667562010856,
        "lon": -91.9685513076698,
        "alt_km": 467.78960122215176,
        "timestamp": "2025-12-06T16:45:43.107123+00:00",
        "meta_object_name": "IRIDIUM 33 DEB",
        "meta_object_id": "1997-051AAQ",
        "meta_epoch": "2025-11-16T15:05:40.850592",
        "meta_mean_motion": 15.19327111,
        "meta_eccentricity": 0.00057535,
        "meta_inclination": 86.1306,
        "meta_ra_of_asc_node": 268.8004,
        "meta_arg_of_pericenter": 179.9151,
        "meta_mean_anomaly": 1.8316,
        "meta_ephemeris_type": 0,
        "meta_classification_type": "U",
        "meta_norad_cat_id": 39783,
        "meta_element_set_no": 999,
        "meta_rev_at_epoch": 60401,
        "meta_bstar": 0.010398125,
        "meta_mean_motion_dot": 0.00226179,
        "meta_mean_motion_ddot": 0,
        "tle_line1": "1 39783U 97051AAQ 25320.62894503  .00226179  00000+0  10398-1 0  9999",
        "tle_line2": "2 39783  86.1306 268.8004 0005753 179.9151   1.8316 15.19327111604018"
      },
      "geometry": {
        "type": "Point",
        "coordinates": [
          -91.9685513076698,
          67.91667562010856
        ]
      }
    },
    {
      "type": "Feature",
      "properties": {
        "norad_id": 40996,
        "name": "IRIDIUM 33 DEB",
        "group": "iridium-33-debris",
        "lat": -16.7881759770887,
        "lon": 3.129982963221335,
        "alt_km": 586.1819113489983,
        "timestamp": "2025-12-06T16:45:43.107133+00:00",
        "meta_object_name": "IRIDIUM 33 DEB",
        "meta_object_id": "1997-051ABJ",
        "meta_epoch": "2025-12-02T08:31:11.979264",
        "meta_mean_motion": 14.95250831,
        "meta_eccentricity": 0.00120962,
        "meta_inclination": 86.3524,
        "meta_ra_of_asc_node": 6.2584,
        "meta_arg_of_pericenter": 92.2467,
        "meta_mean_anomaly": 284.2756,
        "meta_ephemeris_type": 0,
        "meta_classification_type": "U",
        "meta_norad_cat_id": 40996,
        "meta_element_set_no": 999,
        "meta_rev_at_epoch": 62333,
        "meta_bstar": 0.0031243939,
        "meta_mean_motion_dot": 0.0003457,
        "meta_mean_motion_ddot": 0,
        "tle_line1": "1 40996U 97051ABJ 25336.35499976  .00034570  00000+0  31244-2 0  9995",
        "tle_line2": "2 40996  86.3524   6.2584 0012096  92.2467 284.2756 14.95250831623330"
      },
      "geometry": {
        "type": "Point",
        "coordinates": [
          3.129982963221335,
          -16.7881759770887
        ]
      }
    },
    {
      "type": "Feature",
      "properties": {
        "norad_id": 40998,
        "name": "IRIDIUM 33 DEB",
        "group": "iridium-33-debris",
        "lat": 75.2353222227667,
        "lon": -137.64766850087082,
        "alt_km": 727.9929624341476,
        "timestamp": "2025-12-06T16:45:43.107143+00:00",
        "meta_object_name": "IRIDIUM 33 DEB",
        "meta_object_id": "1997-051ABL",
        "meta_epoch": "2025-12-03T12:06:12.154176",
        "meta_mean_motion": 14.45043538,
        "meta_eccentricity": 0.00095708,
        "meta_inclination": 86.3836,
        "meta_ra_of_asc_node": 57.6004,
        "meta_arg_of_pericenter": 108.6038,
        "meta_mean_anomaly": 309.9308,
        "meta_ephemeris_type": 0,
        "meta_classification_type": "U",
        "meta_norad_cat_id": 40998,
        "meta_element_set_no": 999,
        "meta_rev_at_epoch": 6548,
        "meta_bstar": 0.00081638604,
        "meta_mean_motion_dot": 2.87e-05,
        "meta_mean_motion_ddot": 0,
        "tle_line1": "1 40998U 97051ABL 25337.50430734  .00002870  00000+0  81639-3 0  9994",
        "tle_line2": "2 40998  86.3836  57.6004 0009570 108.6038 309.9308 14.45043538 65487"
      },
      "geometry": {
        "type": "Point",
        "coordinates": [
          -137.64766850087082,
          75.2353222227667
        ]
      }
    }
  ]
}